NORAD_CAT_ID,OBJECT_NAME,OBJECT_TYPE,EPOCH,MEAN_MOTION,ECCENTRICITY,INCLINATION,RA_OF_ASC_NODE,ARG_OF_PERICENTER,MEAN_ANOMALY,BSTAR,MEAN_MOTION_DOT,MEAN_MOTION_DDOT,TLE_LINE0,TLE_LINE1,TLE_LINE2,SEMIMAJOR_AXIS,PERIOD,APOGEE,PERIGEE,DECAYED
51134.0,STARLINK-3183,PAYLOAD,2022-08-17 12:57:24,15.08830322,0.0001235,53.218,5.7048,52.338,307.7724,-4.8309e-05,-1.056e-05,0.0,0 STARLINK-3183,1 51134U 22005AG  22229.53987192 -.00001056  00000-0 -48309-4 0  9996,2 51134  53.2180   5.7048 0001235  52.3380 307.7724 15.08830322 33717,6917.91,95.438,540.629,538.9209999999998,0.0
51134.0,STARLINK-3183,PAYLOAD,2022-08-18 12:48:11,15.08836197,0.0001648,53.2186,1.2458,47.9288,312.1844,8.1116e-05,1.003e-05,0.0,0 STARLINK-3183,1 51134U 22005AG  22230.53346972  .00001003  00000-0  81116-4 0  9996,2 51134  53.2186   1.2458 0001648  47.9288 312.1844 15.08836197 32756,6917.892,95.438,540.8969999999998,538.617,0.0
51134.0,STARLINK-3183,PAYLOAD,2022-08-18 15:58:57,15.08837861,0.0001531999999999,53.2185,0.6504,42.4917,317.6194,0.00011902,1.607e-05,0.0,0 STARLINK-3183,1 51134U 22005AG  22230.66594744  .00001607  00000-0  11902-3 0  9997,2 51134  53.2185   0.6504 0001532  42.4917 317.6194 15.08837861 32770,6917.887,95.438,540.812,538.692,0.0
51134.0,STARLINK-3183,PAYLOAD,2022-08-19 07:52:48,15.08861703,0.000165,53.2186,357.6771,49.5581,310.5555,-9.1018e-05,-1.737e-05,0.0,0 STARLINK-3183,1 51134U 22005AG  22231.32833692 -.00001737  00000-0 -91018-4 0  9992,2 51134  53.2186 357.6771 0001650  49.5581 310.5555 15.08861703 33987,6917.814,95.436,540.82,538.538,0.0
51134.0,STARLINK-3183,PAYLOAD,2022-08-19 12:38:58,15.08840315,0.0001506999999999,53.2187,356.785,48.643,311.4692,0.00012883,1.763e-05,0.0,0 STARLINK-3183,1 51134U 22005AG  22231.52706361  .00001763  00000-0  12883-3 0  9995,2 51134  53.2187 356.7850 0001507  48.6430 311.4692 15.08840315 32909,6917.879,95.438,540.7869999999998,538.702,0.0
51134.0,STARLINK-3183,PAYLOAD,2022-08-20 12:29:46,15.08832166,0.0001602,53.219,352.3246,53.111,307.0029,-0.00011206,-2.071e-05,0.0,0 STARLINK-3183,1 51134U 22005AG  22232.52068037 -.00002071  00000-0 -11206-3 0  9990,2 51134  53.2190 352.3246 0001602  53.1110 307.0029 15.08832166 34166,6917.904,95.438,540.878,538.661,0.0
51134.0,STARLINK-3183,PAYLOAD,2022-08-20 15:40:33,15.08831507,0.0001584,53.2193,351.7302,60.9518,299.1632,-0.00011129,-2.058e-05,0.0,0 STARLINK-3183,1 51134U 22005AG  22232.65316108 -.00002058  00000-0 -11129-3 0  9998,2 51134  53.2193 351.7302 0001584  60.9518 299.1632 15.08831507 33070,6917.906,95.438,540.867,538.6759999999998,0.0
51134.0,STARLINK-3183,PAYLOAD,2022-08-21 13:55:56,15.0883654,0.0001705,53.2195,347.5681,59.3381,300.7779,-2.5111e-05,-6.88e-06,0.0,0 STARLINK-3183,1 51134U 22005AG  22233.58051727 -.00000688  00000-0 -25111-4 0  9998,2 51134  53.2195 347.5681 0001705  59.3381 300.7779 15.08836540 33219,6917.891,95.438,540.935,538.576,0.0
51134.0,STARLINK-3183,PAYLOAD,2022-08-21 17:06:42,15.08838337,0.0001739,53.2194,346.9731,59.3707,300.7457,-7.4522e-06,-4.07e-06,0.0,0 STARLINK-3183,1 51134U 22005AG  22233.71299588 -.00000407  00000-0 -74522-5 0  9992,2 51134  53.2194 346.9731 0001739  59.3707 300.7457 15.08838337 33237,6917.885,95.438,540.953,538.547,0.0
51134.0,STARLINK-3183,PAYLOAD,2022-08-22 07:25:10,15.08835964,0.0001727,53.2192,344.2966,59.5388,300.5775,0.00012342,1.677e-05,0.0,0 STARLINK-3183,1 51134U 22005AG  22234.30915315  .00001677  00000-0  12342-3 0  9999,2 51134  53.2192 344.2966 0001727  59.5388 300.5775 15.08835964 33324,6917.893,95.438,540.952,538.563,0.0
51134.0,STARLINK-3183,PAYLOAD,2022-08-22 15:22:06,15.08840083,0.0001753,53.2192,342.81,60.2279,299.8888,0.00014454,2.013e-05,0.0,0 STARLINK-3183,1 51134U 22005AG  22234.64034996  .00002013  00000-0  14454-3 0  9994,2 51134  53.2192 342.8100 0001753  60.2279 299.8888 15.08840083 34486,6917.88,95.438,540.9580000000002,538.5319999999998,0.0
51134.0,STARLINK-3183,PAYLOAD,2022-08-23 00:54:26,15.08829952,0.0001713,53.219,341.0257,61.3978,298.7186,2.4938e-05,1.09e-06,0.0,0 STARLINK-3183,1 51134U 22005AG  22235.03780156  .00000109  00000-0  24938-4 0  9997,2 51134  53.2190 341.0257 0001713  61.3978 298.7186 15.08829952 34540,6917.911,95.438,540.961,538.591,0.0
51134.0,STARLINK-3183,PAYLOAD,2022-08-23 10:26:44,15.08836972,0.0001919,53.2186,339.2421,58.2982,301.8197,2.8085e-05,1.59e-06,0.0,0 STARLINK-3183,1 51134U 22005AG  22235.43523857  .00000159  00000-0  28085-4 0  9996,2 51134  53.2186 339.2421 0001919  58.2982 301.8197 15.08836972 34600,6917.89,95.438,541.082,538.427,0.0
51134.0,STARLINK-3183,PAYLOAD,2022-08-23 13:37:30,15.08836651,0.0001788,53.2169,338.6462,60.7381,299.3789,1.8491e-05,6e-08,0.0,0 STARLINK-3183,1 51134U 22005AG  22235.56771848  .00000006  00000-0  18491-4 0  9996,2 51134  53.2169 338.6462 0001788  60.7381 299.3789 15.08836651 33515,6917.891,95.438,540.993,538.519,0.0
51134.0,STARLINK-3183,PAYLOAD,2022-08-24 11:52:54,15.08845446,0.0001751999999999,53.219,334.4848,59.5657,300.5508,-1.3763e-05,-5.07e-06,0.0,0 STARLINK-3183,1 51134U 22005AG  22236.49507325 -.00000507  00000-0 -13763-4 0  9991,2 51134  53.2190 334.4848 0001752  59.5657 300.5508 15.08845446 34768,6917.864000000001,95.437,540.941,538.5169999999998,0.0
51134.0,STARLINK-3183,PAYLOAD,2022-08-24 13:28:17,15.08846327,0.000172,53.2193,334.1876,58.0809,302.0351,-8.4488e-06,-4.23e-06,0.0,0 STARLINK-3183,1 51134U 22005AG  22236.56131229 -.00000423  00000-0 -84488-5 0  9995,2 51134  53.2193 334.1876 0001720  58.0809 302.0351 15.08846327 33667,6917.861,95.437,540.9159999999998,538.536,0.0
51134.0,STARLINK-3183,PAYLOAD,2022-08-25 05:22:09,15.0883681,0.0001706999999999,53.219,331.2143,56.5956,303.5199,1.8398e-05,5e-08,0.0,0 STARLINK-3183,1 51134U 22005AG  22237.22371657  .00000005  00000-0  18398-4 0  9990,2 51134  53.2190 331.2143 0001707  56.5956 303.5199 15.08836810 34876,6917.89,95.438,540.936,538.5740000000002,0.0
51134.0,STARLINK-3183,PAYLOAD,2022-08-25 10:08:18,15.0883133,0.0001683,53.2191,330.32199999999995,55.6096,304.5055,-1.8593e-05,-5.84e-06,0.0,0 STARLINK-3183,1 51134U 22005AG  22237.42244183 -.00000584  00000-0 -18593-4 0  9996,2 51134  53.2191 330.3220 0001683  55.6096 304.5055 15.08831330 34909,6917.906999999997,95.438,540.936,538.6080000000002,0.0
51134.0,STARLINK-3183,PAYLOAD,2022-08-26 09:59:05,15.08838169,0.0001651,53.2188,325.861,50.8233,309.2906,-3.9873e-05,-9.23e-06,0.0,0 STARLINK-3183,1 51134U 22005AG  22238.41604138 -.00000923  00000-0 -39873-4 0  9997,2 51134  53.2188 325.8610 0001651  50.8233 309.2906 15.08838169 33949,6917.886,95.438,540.893,538.609,0.0
51134.0,STARLINK-3183,PAYLOAD,2022-08-26 16:20:38,15.08839649,0.0001674,53.2189,324.6718,51.3739,308.7403,-2.3048e-05,-6.55e-06,0.0,0 STARLINK-3183,1 51134U 22005AG  22238.68100006 -.00000655  00000-0 -23048-4 0  9990,2 51134  53.2189 324.6718 0001674  51.3739 308.7403 15.08839649 33982,6917.880999999999,95.438,540.905,538.5880000000002,0.0
51134.0,STARLINK-3183,PAYLOAD,2022-08-27 11:25:15,15.08839789,0.0001644,53.219,321.1034,52.8951,307.2191,8.391799999999999e-05,1.048e-05,0.0,0 STARLINK-3183,1 51134U 22005AG  22239.47587589  .00001048  00000-0  83918-4 0  9990,2 51134  53.2190 321.1034 0001644  52.8951 307.2191 15.08839789 34104,6917.880999999999,95.438,540.883,538.609,0.0
51134.0,STARLINK-3183,PAYLOAD,2022-08-27 14:36:01,15.08840939,0.0001658,53.2186,320.5086,52.1624,307.9518,8.923e-05,1.132e-05,0.0,0 STARLINK-3183,1 51134U 22005AG  22239.60835490  .00001132  00000-0  89230-4 0  9999,2 51134  53.2186 320.5086 0001658  52.1624 307.9518 15.08840939 34125,6917.878000000002,95.437,540.89,538.596,0.0
51134.0,STARLINK-3183,PAYLOAD,2022-08-28 04:54:29,15.08844593,0.0001652,53.2184,317.8324,52.6074,307.5068,7.8057e-05,9.55e-06,0.0,0 STARLINK-3183,1 51134U 22005AG  22240.20451159  .00000955  00000-0  78057-4 0  9990,2 51134  53.2184 317.8324 0001652  52.6074 307.5068 15.08844593 35324,6917.866,95.437,540.874,538.589,0.0
51134.0,STARLINK-3183,PAYLOAD,2022-08-28 12:51:25,15.08841785,0.0001692,53.2187,316.3456,52.5492,307.5654,1.8796e-05,1.1e-07,0.0,0 STARLINK-3183,1 51134U 22005AG  22240.53571523  .00000011  00000-0  18796-4 0  9991,2 51134  53.2187 316.3456 0001692  52.5492 307.5654 15.08841785 34267,6917.875,95.437,540.91,538.569,0.0
51134.0,STARLINK-3183,PAYLOAD,2022-08-28 14:26:48,15.08841162,0.0001699999999999,53.2187,316.0484,52.8481,307.2666,1.3042e-05,-8e-07,0.0,0 STARLINK-3183,1 51134U 22005AG  22240.60195570 -.00000080  00000-0  13042-4 0  9999,2 51134  53.2187 316.0484 0001700  52.8481 307.2666 15.08841162 35389,6917.877,95.437,540.918,538.566,0.0
51134.0,STARLINK-3183,PAYLOAD,2022-08-29 11:06:49,15.08841919,0.0001694,53.2195,312.1839,48.5004,311.6134,-3.1671e-05,-7.92e-06,0.0,0 STARLINK-3183,1 51134U 22005AG  22241.46307416 -.00000792  00000-0 -31671-4 0  9997,2 51134  53.2195 312.1839 0001694  48.5004 311.6134 15.08841919 34405,6917.875,95.437,540.911,538.568,0.0
51134.0,STARLINK-3183,PAYLOAD,2022-08-29 14:17:35,15.08841833,0.0001749,53.2195,311.5888,49.8089,310.3056,-4.2406000000000014e-05,-9.63e-06,0.0,0 STARLINK-3183,1 51134U 22005AG  22241.59555447 -.00000963  00000-0 -42406-4 0  9998,2 51134  53.2195 311.5888 0001749  49.8089 310.3056 15.08841833 34426,6917.875,95.437,540.95,538.53,0.0
51134.0,STARLINK-3183,PAYLOAD,2022-08-30 03:00:41,15.08826469,0.0001315,53.219,309.2103,50.4734,309.6374,2.7188e-05,1.45e-06,0.0,0 STARLINK-3183,1 51134U 22005AG  22242.12548197  .00000145  00000-0  27188-4 0  9992,2 51134  53.2190 309.2103 0001315  50.4734 309.6374 15.08826469 35613,6917.922,95.438,540.696,538.877,0.0
51134.0,STARLINK-3183,PAYLOAD,2022-08-30 10:57:36,15.08835564,0.0001745,53.2187,307.7231,53.573,306.5423,-1.3128e-05,-4.97e-06,0.0,0 STARLINK-3183,1 51134U 22005AG  22242.45667768 -.00000497  00000-0 -13128-4 0  9995,2 51134  53.2187 307.7231 0001745  53.5730 306.5423 15.08835564 35663,6917.894,95.438,540.966,538.552,0.0
